[
{"phone": null, "name": "Shari's Berries", "address_text": "Serving the Tucson area."},
{"phone": null, "name": "Village Bakehouse", "address": {"region": "AZ", "zipcode": "85704", "street_address": "7882 N Oracle Rd", "locality": "Tucson,\u00a0"}},
{"phone": null, "name": "Beyond Bread", "address": {"region": "AZ", "zipcode": "85712", "street_address": "6260 E Speedway Blvd", "locality": "Tucson,\u00a0"}},
{"phone": null, "name": "Sonya's Brown Sugar Bakery", "address": {"region": "AZ", "zipcode": "85741", "street_address": "3821 West Costco Dr #119", "locality": "Tucson,\u00a0"}},
{"phone": null, "name": "Nadine's Pastry Shoppe", "address": {"region": "AZ", "zipcode": "85711", "street_address": "4553 E Broadway Blvd", "locality": "Tucson,\u00a0"}},
{"phone": null, "name": "La Baguette Bakery", "address": {"region": "AZ", "zipcode": "85719", "street_address": "1797 E Prince Rd", "locality": "Tucson,\u00a0"}},
{"phone": null, "name": "La Baguette Parisienne", "address": {"region": "AZ", "zipcode": "85710", "street_address": "7851 E Broadway Blvd", "locality": "Tucson,\u00a0"}},
{"phone": null, "name": "Norma's Cakery", "address": {"region": "AZ", "zipcode": "85713", "street_address": "2500 S 6th Ave", "locality": "Tucson,\u00a0"}},
{"phone": null, "name": "Le Bon Gateau", "address": {"region": "AZ", "zipcode": "85705", "street_address": "4695 N Oracle Rd Ste 105", "locality": "Tucson,\u00a0"}},
{"phone": null, "name": "Sweet Tooshies Bakery", "address": {"region": "AZ", "zipcode": "85749", "street_address": "8963 E Tanque Verde Rd", "locality": "Tucson,\u00a0"}},
{"phone": null, "name": "Enchanted Cakes & Cupcakes", "address": {"region": "AZ", "zipcode": "85743", "street_address": "10810 W Anthony Dr", "locality": "Tucson,\u00a0"}},
{"phone": null, "name": "Ghini's French Caffe", "address": {"region": "AZ", "zipcode": "85719", "street_address": "1803 E Prince Rd", "locality": "Tucson,\u00a0"}},
{"phone": null, "name": "Donut Wheel", "address": {"region": "AZ", "zipcode": "85741", "street_address": "4524 W Ina Rd", "locality": "Tucson,\u00a0"}},
{"phone": null, "name": "Donut Wheel", "address": {"region": "AZ", "zipcode": "85706", "street_address": "675 W Valencia Rd", "locality": "Tucson,\u00a0"}},
{"phone": null, "name": "Dunkin' Donuts", "address": {"region": "AZ", "zipcode": "85710", "street_address": "9485 E Broadway Blvd", "locality": "Tucson,\u00a0"}},
{"phone": null, "name": "La Palma Tortilla Factory & Bakery", "address": {"region": "AZ", "zipcode": "85705", "street_address": "3624 N Oracle Rd", "locality": "Tucson,\u00a0"}},
{"phone": null, "name": "Woops! BakeShop", "address": {"region": "AZ", "zipcode": "85719", "street_address": "845 E University Boulevard, Main Gate Square", "locality": "Tucson,\u00a0"}},
{"phone": null, "name": "The Coronet", "address": {"region": "AZ", "zipcode": "85705", "street_address": "402 E 9th St", "locality": "Tucson,\u00a0"}},
{"phone": null, "name": "Cafe 54", "address": {"region": "AZ", "zipcode": "85701", "street_address": "54 E Pennington St", "locality": "Tucson,\u00a0"}},
{"phone": null, "name": "GRINGO grill + cantina", "address": {"region": "AZ", "zipcode": "85704", "street_address": "5900 N Oracle Rd", "locality": "Tucson,\u00a0"}},
{"phone": null, "name": "Aj's", "address": {"region": "AZ", "zipcode": "85718", "street_address": "2805 E Skyline Dr", "locality": "Tucson,\u00a0"}},
{"phone": null, "name": "Albertsons", "address": {"region": "AZ", "zipcode": "85741", "street_address": "7300 N La Cholla Blvd", "locality": "Tucson,\u00a0"}},
{"phone": null, "name": "Mini's Cupcakes", "address": {"region": "AZ", "zipcode": "85704", "street_address": "7051 N Oracle Rd", "locality": "Tucson,\u00a0"}},
{"phone": null, "name": "Sugar Sweet Bakery", "address": {"region": "AZ", "zipcode": "85716", "street_address": "18 S Eastbourne Ave", "locality": "Tucson,\u00a0"}},
{"phone": null, "name": "Tayna Restaurant and Bakery", "address": {"region": "AZ", "zipcode": "85716", "street_address": "2526 E 6th St", "locality": "Tucson,\u00a0"}},
{"phone": null, "name": "Professional Bartenders Unlimited", "address": {"region": "AZ", "zipcode": "85716", "street_address": "3619 E Speedway Blvd", "locality": "Tucson,\u00a0"}},
{"phone": null, "name": "Beyond Bread, Inc.", "address": {"region": "AZ", "zipcode": "85712", "street_address": "3957 E Speedway Blvd Ste 209", "locality": "Tucson,\u00a0"}},
{"phone": null, "name": "Alvernon Donut Shop", "address": {"region": "AZ", "zipcode": "85711", "street_address": "1450 S Alvernon Way", "locality": "Tucson,\u00a0"}},
{"phone": null, "name": "Mercad Y Carniceria El", "address": {"region": "AZ", "zipcode": "85711", "street_address": "4211 E 22nd St", "locality": "Tucson,\u00a0"}},
{"phone": null, "name": "Meziab International", "address": {"region": "AZ", "zipcode": "85712", "street_address": "4500 E Speedway Blvd", "locality": "Tucson,\u00a0"}},
{"phone": null, "name": "CakeLab", "address": {"region": "AZ", "zipcode": "85705", "street_address": "402 E 4th St Unit 3", "locality": "Tucson,\u00a0"}},
{"phone": null, "name": "Village Bakehouse", "address_text": "7882 N Oracle Rd, Tucson, AZ 85704"},
{"phone": null, "name": "Cup Quequitos", "address": {"region": "AZ", "zipcode": "85701", "street_address": "110 E Pennington St", "locality": "Tucson,\u00a0"}},
{"phone": null, "name": "Prep & Pastry", "address": {"region": "AZ", "zipcode": "85719", "street_address": "3073 N Campbell Ave", "locality": "Tucson,\u00a0"}},
{"phone": null, "name": "Donut King", "address": {"region": "AZ", "zipcode": "85705", "street_address": "150 W Grant Rd", "locality": "Tucson,\u00a0"}},
{"phone": null, "name": "La Estrella Bakery Inc", "address": {"region": "AZ", "zipcode": "85745", "street_address": "100 S Avenida Del Convento", "locality": "Tucson,\u00a0"}},
{"phone": null, "name": "Indian Frye Bread Manna From Heaven", "address": {"region": "AZ", "zipcode": "85745", "street_address": "1118 W Saint Marys Rd", "locality": "Tucson,\u00a0"}},
{"phone": null, "name": "Cakes By Clara", "address": {"region": "AZ", "zipcode": "85719", "street_address": "3419 N 1st Ave", "locality": "Tucson,\u00a0"}},
{"phone": null, "name": "Kneaders Bakery & Cafe", "address": {"region": "AZ", "zipcode": "85711", "street_address": "135 S Wilmot Rd, Tucson, AZ 85711", "locality": "Tucson,\u00a0"}},
{"phone": null, "name": "Donut Wheel", "address": {"region": "AZ", "zipcode": "85714", "street_address": "4801 S Campbell Ave", "locality": "Tucson,\u00a0"}},
{"phone": null, "name": "Prep & Pastry", "address": {"region": "AZ", "zipcode": "85715", "street_address": "6450 E Grant Rd", "locality": "Tucson,\u00a0"}},
{"phone": null, "name": "Bakehouse Bread Company", "address": {"region": "AZ", "zipcode": "85745", "street_address": "2520 N Jackrabbit Ave", "locality": "Tucson,\u00a0"}},
{"phone": null, "name": "Donut Wheel", "address": {"region": "AZ", "zipcode": "85730", "street_address": "2630 S Kolb Rd", "locality": "Tucson,\u00a0"}},
{"phone": null, "name": "Market Basket", "address": {"region": "AZ", "zipcode": "85706", "street_address": "5242 S 12th Ave", "locality": "Tucson,\u00a0"}},
{"phone": null, "name": "Alejandro's Tortilla Factory", "address": {"region": "AZ", "zipcode": "85706", "street_address": "5330 S 12th Ave", "locality": "Tucson,\u00a0"}},
{"phone": null, "name": "Pie Bird Bakery & Cafe", "address": {"region": "AZ", "zipcode": "85710", "street_address": "7679 E Chase Park Loop", "locality": "Tucson,\u00a0"}},
{"phone": null, "name": "Nut'n Honey Bakery", "address": {"region": "AZ", "zipcode": "85730", "street_address": "7441 E Desert Aire Dr", "locality": "Tucson,\u00a0"}},
{"phone": null, "name": "Ambrosia Cakes", "address": {"region": "AZ", "zipcode": "85704", "street_address": "6100 N Oracle Rd Ste 22", "locality": "Tucson,\u00a0"}},
{"phone": null, "name": "Cayley Cakes", "address": {"region": "AZ", "zipcode": "85749", "street_address": "8963 E Tanque Verde Rd", "locality": "Tucson,\u00a0"}},
{"phone": null, "name": "Ambrosia of Tucson", "address": {"region": "AZ", "zipcode": "85704", "street_address": "7051 N Oracle Rd", "locality": "Tucson,\u00a0"}},
{"phone": null, "name": "Bb Sweets Inc", "address": {"region": "AZ", "zipcode": "85704", "street_address": "421 W Ina Rd", "locality": "Tucson,\u00a0"}},
{"phone": null, "name": "Cactus Cakes Corp", "address": {"region": "AZ", "zipcode": "85704", "street_address": "7278 N Oracle Rd", "locality": "Tucson,\u00a0"}},
{"phone": null, "name": "Nothing Bundt Cakes", "address": {"region": "AZ", "zipcode": "85704", "street_address": "7278 N Oracle Rd", "locality": "Tucson,\u00a0"}},
{"phone": null, "name": "Queen Donuts", "address": {"region": "AZ", "zipcode": "85713", "street_address": "5975 W Western Way Cir # 110", "locality": "Tucson,\u00a0"}},
{"phone": null, "name": "Sonya's Brown Sugar Bakery", "address": {"region": "AZ", "zipcode": "85741", "street_address": "3821 West Costco Dr, Suite 119", "locality": "Tucson,\u00a0"}},
{"phone": null, "name": "Busy B's Bakery", "address": {"region": "AZ", "zipcode": "85741", "street_address": "6781 N Thornydale Rd Ste 229", "locality": "Tucson,\u00a0"}},
{"phone": null, "name": "Cookie Wagon", "address": {"region": "AZ", "zipcode": "85741", "street_address": "6910 N Camino Martin Ste 130", "locality": "Tucson,\u00a0"}},
{"phone": null, "name": "Perkins Restaurant & Bakery", "address": {"region": "AZ", "zipcode": "85741", "street_address": "4650 W Ina Rd", "locality": "Tucson,\u00a0"}},
{"phone": null, "name": "Traditions Bakery", "address": {"region": "AZ", "zipcode": "85737", "street_address": "10604 N Oracle Rd", "locality": "Tucson,\u00a0"}},
{"phone": null, "name": "Breadsmith", "address": {"region": "AZ", "zipcode": "85737", "street_address": "10355 N La Canada Dr", "locality": "Tucson,\u00a0"}},
{"phone": null, "name": "Couture Cake Jewelry", "address": {"region": "AZ", "zipcode": "85742", "street_address": "2681 W Camino Llano", "locality": "Tucson,\u00a0"}},
{"phone": null, "name": "Walmart - Bakery", "address": {"region": "AZ", "zipcode": "85743", "street_address": "8280 N Cortaro Rd", "locality": "Tucson,\u00a0"}},
{"phone": null, "name": "Cookie Wagon", "address": {"region": "AZ", "zipcode": "85741", "street_address": "6910 N Camino Martin Ste 130", "locality": "Tucson,\u00a0"}},
{"phone": null, "name": "Perkins Restaurant & Bakery", "address": {"region": "AZ", "zipcode": "85741", "street_address": "4650 W Ina Rd", "locality": "Tucson,\u00a0"}},
{"phone": null, "name": "Traditions Bakery", "address": {"region": "AZ", "zipcode": "85737", "street_address": "10604 N Oracle Rd", "locality": "Tucson,\u00a0"}},
{"phone": null, "name": "Breadsmith", "address": {"region": "AZ", "zipcode": "85737", "street_address": "10355 N La Canada Dr", "locality": "Tucson,\u00a0"}},
{"phone": null, "name": "Couture Cake Jewelry", "address": {"region": "AZ", "zipcode": "85742", "street_address": "2681 W Camino Llano", "locality": "Tucson,\u00a0"}},
{"phone": null, "name": "Walmart - Bakery", "address": {"region": "AZ", "zipcode": "85743", "street_address": "8280 N Cortaro Rd", "locality": "Tucson,\u00a0"}},
{"phone": null, "name": "Cinnabon", "address": {"region": "AZ", "zipcode": "85756", "street_address": "5570 E Travel Plaza Way", "locality": "Tucson,\u00a0"}},
{"phone": null, "name": "La Estrella Bakery Inc", "address": {"region": "AZ", "zipcode": "85706", "street_address": "5266 S 12th Ave,", "locality": "Tucson,\u00a0"}},
{"phone": null, "name": "Viro's Real Italian Bakery", "address": {"region": "AZ", "zipcode": "85710", "street_address": "8301 E 22nd St", "locality": "Tucson,\u00a0"}},
{"phone": null, "name": "Gourmet Girls Gluten Free Bakery/Bistro", "address": {"region": "AZ", "zipcode": "85704", "street_address": "5845 N Oracle Rd", "locality": "Tucson,\u00a0"}},
{"phone": null, "name": "Le Cave's Bakery Inc", "address": {"region": "AZ", "zipcode": "85713", "street_address": "1219 S 6th Ave", "locality": "Tucson,\u00a0"}},
{"phone": null, "name": "Marco's Patisserie Bakery", "address": {"region": "AZ", "zipcode": "85716", "street_address": "3308 E Grant Rd", "locality": "Tucson,\u00a0"}},
{"phone": null, "name": "Holsum Bakery Outlet", "address": {"region": "AZ", "zipcode": "85713", "street_address": "2801 S 4th Ave", "locality": "Tucson,\u00a0"}},
{"phone": null, "name": "Albertsons", "address": {"region": "AZ", "zipcode": "85748", "street_address": "9595 E Broadway Blvd", "locality": "Tucson,\u00a0"}},
{"phone": null, "name": "Small Planet Bakery", "address": {"region": "AZ", "zipcode": "85705", "street_address": "411 N 7th Ave Ste 101", "locality": "Tucson,\u00a0"}},
{"phone": null, "name": "Dunkin' Donuts", "address": {"region": "AZ", "zipcode": "85719", "street_address": "904 E University Blvd", "locality": "Tucson,\u00a0"}},
{"phone": null, "name": "Bruegger's", "address": {"region": "AZ", "zipcode": "85718", "street_address": "5665 N Swan Rd", "locality": "Tucson,\u00a0"}},
{"phone": null, "name": "Mimi's Fine Bakery & Cafe", "address": {"region": "AZ", "zipcode": "85747", "street_address": "8517 E Ramona Madera Ln", "locality": "Tucson,\u00a0"}},
{"phone": null, "name": "Bruegger's", "address": {"region": "AZ", "zipcode": "85719", "street_address": "1064 N Campbell Ave", "locality": "Tucson,\u00a0"}},
{"phone": null, "name": "Bruegger's", "address": {"region": "AZ", "zipcode": "85701", "street_address": "1 W Congress St", "locality": "Tucson,\u00a0"}},
{"phone": null, "name": "Bruegger's", "address": {"region": "AZ", "zipcode": "85711", "street_address": "6165 E Broadway Blvd", "locality": "Tucson,\u00a0"}},
{"phone": null, "name": "Bruegger's", "address": {"region": "AZ", "zipcode": "85715", "street_address": "7127 E Tanque Verde Rd", "locality": "Tucson,\u00a0"}},
{"phone": null, "name": "Bruegger's", "address": {"region": "AZ", "zipcode": "85704", "street_address": "88 W River Rd", "locality": "Tucson,\u00a0"}},
{"phone": null, "name": "Albertsons", "address": {"region": "AZ", "zipcode": "85704", "street_address": "5085 N La Canada Dr", "locality": "Tucson,\u00a0"}},
{"phone": null, "name": "Bruegger's", "address": {"region": "AZ", "zipcode": "85741", "street_address": "7320 N La Cholla Blvd", "locality": "Tucson,\u00a0"}},
{"phone": null, "name": "Bruegger's", "address": {"region": "AZ", "zipcode": "85716", "street_address": "3843 E Broadway Blvd", "locality": "Tucson,\u00a0"}},
{"phone": null, "name": "Albertsons", "address": {"region": "AZ", "zipcode": "85715", "street_address": "6600 E Grant Rd", "locality": "Tucson,\u00a0"}},
{"phone": null, "name": "Coyote Pause Cafe", "address": {"region": "AZ", "zipcode": "85735", "street_address": "2740 S Kinney Rd Ste B", "locality": "Tucson,\u00a0"}},
{"phone": null, "name": "Albertsons", "address": {"region": "AZ", "zipcode": "85719", "street_address": "2854 N Campbell Ave", "locality": "Tucson,\u00a0"}},
{"phone": null, "name": "Albertsons", "address": {"region": "AZ", "zipcode": "85710", "street_address": "6363 E 22nd St", "locality": "Tucson,\u00a0"}},
{"phone": null, "name": "Oroweat Baking Co", "address": {"region": "AZ", "zipcode": "85713", "street_address": "3770 S Park Ave Ste C", "locality": "Tucson,\u00a0"}},
{"phone": null, "name": "Dunkin' Donuts", "address": {"region": "AZ", "zipcode": "85711", "street_address": "5346 E 22nd St", "locality": "Tucson,\u00a0"}},
{"phone": null, "name": "Queen Donuts", "address": {"region": "AZ", "zipcode": "85745", "street_address": "1108 W Saint Marys Rd", "locality": "Tucson,\u00a0"}},
{"phone": null, "name": "Sun-Rise Baking Co.", "address": {"region": "AZ", "zipcode": "85719", "street_address": "3650 N 1st Ave Ste 160", "locality": "Tucson,\u00a0"}},
{"phone": null, "name": "Albertsons", "address": {"region": "AZ", "zipcode": "85745", "street_address": "1350 N Silverbell Rd", "locality": "Tucson,\u00a0"}},
{"phone": null, "name": "Cinnabon", "address": {"region": "AZ", "zipcode": "85705", "street_address": "4500 N Oracle Rd Ste 126", "locality": "Tucson,\u00a0"}},
{"phone": null, "name": "Dunkin' Donuts", "address": {"region": "AZ", "zipcode": "85746", "street_address": "1655 W Valencia Rd", "locality": "Tucson,\u00a0"}},
{"phone": null, "name": "Bruegger's", "address": {"region": "AZ", "zipcode": "85747", "street_address": "8140 S Houghton Rd Ste 150", "locality": "Tucson,\u00a0"}},
{"phone": null, "name": "B B Sweets", "address": {"region": "AZ", "zipcode": "85719", "street_address": "3026 N Campbell Ave", "locality": "Tucson,\u00a0"}},
{"phone": null, "name": "Lena's Custom Desserts", "address": {"region": "AZ", "zipcode": "85712", "street_address": "1517 N Wilmot Rd", "locality": "Tucson,\u00a0"}},
{"phone": null, "name": "Oroweat Baking Co", "address": {"region": "AZ", "zipcode": "85710", "street_address": "7535 E Broadway Blvd", "locality": "Tucson,\u00a0"}},
{"phone": null, "name": "From The Heart Corp", "address": {"region": "AZ", "zipcode": "85710", "street_address": "150 S Camino Seco # 114", "locality": "Tucson,\u00a0"}},
{"phone": null, "name": "Orowheat Baking Co", "address": {"region": "AZ", "zipcode": "85741", "street_address": "3840 W Ina Rd", "locality": "Tucson,\u00a0"}},
{"phone": null, "name": "Cinnabon", "address": {"region": "AZ", "zipcode": "85711", "street_address": "5870 E Broadway Blvd # 360", "locality": "Tucson,\u00a0"}},
{"phone": null, "name": "Bruegger's", "address": {"region": "AZ", "zipcode": "85737", "street_address": "11165 N La Canada Dr Ste 161", "locality": "Tucson,\u00a0"}},
{"phone": null, "name": "Tortilleria Dona Esperanza", "address": {"region": "AZ", "zipcode": "85713", "street_address": "2432 S 4th Ave", "locality": "Tucson,\u00a0"}},
{"phone": null, "name": "Sons Bakery Cafe", "address": {"region": "AZ", "zipcode": "85712", "street_address": "5683 E Speedway Blvd", "locality": "Tucson,\u00a0"}},
{"phone": null, "name": "Baker & Baker", "address": {"region": "AZ", "zipcode": "85715", "street_address": "9041 E Seneca St", "locality": "Tucson,\u00a0"}},
{"phone": null, "name": "Beyond Bread", "address": {"region": "AZ", "zipcode": "85704", "street_address": "421 W Ina Rd", "locality": "Tucson,\u00a0"}},
{"phone": null, "name": "Liza's Cutie Cupcakes", "address": {"region": "AZ", "zipcode": "85745", "street_address": "2112 W Grant Rd", "locality": "Tucson,\u00a0"}},
{"phone": null, "name": "La Estrella Bakery INC", "address": {"region": "AZ", "zipcode": "85710", "street_address": "100 S Avenida De La Vis", "locality": "Tucson,\u00a0"}},
{"phone": null, "name": "Cinnabon", "address": {"region": "AZ", "zipcode": "85706", "street_address": "3270 E Valencia Rd", "locality": "Tucson,\u00a0"}},
{"phone": null, "name": "El Triunfo Bakery", "address": {"region": "AZ", "zipcode": "85706", "street_address": "6348 S Nogales Hwy", "locality": "Tucson,\u00a0"}},
{"phone": null, "name": "Walmart - Bakery", "address": {"region": "AZ", "zipcode": "85741", "street_address": "7635 N La Cholla Blvd", "locality": "Tucson,\u00a0"}},
{"phone": null, "name": "Mona's Danish Bakery", "address": {"region": "AZ", "zipcode": "85718", "street_address": "4777 E Sunrise Dr Ste 113", "locality": "Tucson,\u00a0"}},
{"phone": null, "name": "Knead Dough", "address": {"region": "AZ", "zipcode": "85712", "street_address": "3957 E Speedway Blvd Ste 209", "locality": "Tucson,\u00a0"}},
{"phone": null, "name": "Conchita's Cakes", "address": {"region": "AZ", "zipcode": "85705", "street_address": "819 W Jacinto St", "locality": "Tucson,\u00a0"}},
{"phone": null, "name": "Baker Center", "address": {"region": "AZ", "zipcode": "85715", "street_address": "2251 N Indian Ruins Rd Ste E", "locality": "Tucson,\u00a0"}},
{"phone": null, "name": "Beyond Bread", "address": {"region": "AZ", "zipcode": "85719", "street_address": "3026 N Campbell Ave", "locality": "Tucson,\u00a0"}},
{"phone": null, "name": "Selah's Baked Blessings", "address": {"region": "AZ", "zipcode": "85713", "street_address": "3622 E 32nd St", "locality": "Tucson,\u00a0"}},
{"phone": null, "name": "Bread & Butter Cafe", "address": {"region": "AZ", "zipcode": "85711", "street_address": "4231 E 22nd St Ste 101", "locality": "Tucson,\u00a0"}},
{"phone": null, "name": "Bimbo Bakeries USA", "address": {"region": "AZ", "zipcode": "85713", "street_address": "3770 S Park Ave", "locality": "Tucson,\u00a0"}},
{"phone": null, "name": "Lena's Custom Dessert", "address": {"region": "AZ", "zipcode": "85712", "street_address": "2418 N Craycroft Rd", "locality": "Tucson,\u00a0"}},
{"phone": null, "name": "Blissful Sweet Cakes", "address": {"region": "AZ", "zipcode": "85713", "street_address": "2110 E Hancock Vis", "locality": "Tucson,\u00a0"}},
{"phone": null, "name": "Nancy's Nook Bakery & Veteran's Retreat", "address": {"region": "NE", "zipcode": "68932", "street_address": "PO Box 127", "locality": "Campbell,\u00a0"}},
{"phone": null, "name": "Tucson Cakes", "address_text": null},
{"phone": null, "name": "Shari's Berries", "address_text": null}
][
{"phone": null, "name": "Shari's Berries", "address_text": "Serving the Tucson area."},
{"phone": null, "name": "Village Bakehouse", "address": {"region": "AZ", "zipcode": "85704", "street_address": "7882 N Oracle Rd", "locality": "Tucson,\u00a0"}},
{"phone": null, "name": "Beyond Bread", "address": {"region": "AZ", "zipcode": "85712", "street_address": "6260 E Speedway Blvd", "locality": "Tucson,\u00a0"}},
{"phone": null, "name": "Sonya's Brown Sugar Bakery", "address": {"region": "AZ", "zipcode": "85741", "street_address": "3821 West Costco Dr #119", "locality": "Tucson,\u00a0"}},
{"phone": null, "name": "Nadine's Pastry Shoppe", "address": {"region": "AZ", "zipcode": "85711", "street_address": "4553 E Broadway Blvd", "locality": "Tucson,\u00a0"}},
{"phone": null, "name": "La Baguette Bakery", "address": {"region": "AZ", "zipcode": "85719", "street_address": "1797 E Prince Rd", "locality": "Tucson,\u00a0"}},
{"phone": null, "name": "La Baguette Parisienne", "address": {"region": "AZ", "zipcode": "85710", "street_address": "7851 E Broadway Blvd", "locality": "Tucson,\u00a0"}},
{"phone": null, "name": "Norma's Cakery", "address": {"region": "AZ", "zipcode": "85713", "street_address": "2500 S 6th Ave", "locality": "Tucson,\u00a0"}},
{"phone": null, "name": "Le Bon Gateau", "address": {"region": "AZ", "zipcode": "85705", "street_address": "4695 N Oracle Rd Ste 105", "locality": "Tucson,\u00a0"}},
{"phone": null, "name": "Sweet Tooshies Bakery", "address": {"region": "AZ", "zipcode": "85749", "street_address": "8963 E Tanque Verde Rd", "locality": "Tucson,\u00a0"}},
{"phone": null, "name": "Enchanted Cakes & Cupcakes", "address": {"region": "AZ", "zipcode": "85743", "street_address": "10810 W Anthony Dr", "locality": "Tucson,\u00a0"}},
{"phone": null, "name": "Ghini's French Caffe", "address": {"region": "AZ", "zipcode": "85719", "street_address": "1803 E Prince Rd", "locality": "Tucson,\u00a0"}},
{"phone": null, "name": "Donut Wheel", "address": {"region": "AZ", "zipcode": "85741", "street_address": "4524 W Ina Rd", "locality": "Tucson,\u00a0"}},
{"phone": null, "name": "Donut Wheel", "address": {"region": "AZ", "zipcode": "85706", "street_address": "675 W Valencia Rd", "locality": "Tucson,\u00a0"}},
{"phone": null, "name": "Dunkin' Donuts", "address": {"region": "AZ", "zipcode": "85710", "street_address": "9485 E Broadway Blvd", "locality": "Tucson,\u00a0"}},
{"phone": null, "name": "La Palma Tortilla Factory & Bakery", "address": {"region": "AZ", "zipcode": "85705", "street_address": "3624 N Oracle Rd", "locality": "Tucson,\u00a0"}},
{"phone": null, "name": "Woops! BakeShop", "address": {"region": "AZ", "zipcode": "85719", "street_address": "845 E University Boulevard, Main Gate Square", "locality": "Tucson,\u00a0"}},
{"phone": null, "name": "The Coronet", "address": {"region": "AZ", "zipcode": "85705", "street_address": "402 E 9th St", "locality": "Tucson,\u00a0"}},
{"phone": null, "name": "Cafe 54", "address": {"region": "AZ", "zipcode": "85701", "street_address": "54 E Pennington St", "locality": "Tucson,\u00a0"}},
{"phone": null, "name": "GRINGO grill + cantina", "address": {"region": "AZ", "zipcode": "85704", "street_address": "5900 N Oracle Rd", "locality": "Tucson,\u00a0"}},
{"phone": null, "name": "Aj's", "address": {"region": "AZ", "zipcode": "85718", "street_address": "2805 E Skyline Dr", "locality": "Tucson,\u00a0"}},
{"phone": null, "name": "Albertsons", "address": {"region": "AZ", "zipcode": "85741", "street_address": "7300 N La Cholla Blvd", "locality": "Tucson,\u00a0"}},
{"phone": null, "name": "Mini's Cupcakes", "address": {"region": "AZ", "zipcode": "85704", "street_address": "7051 N Oracle Rd", "locality": "Tucson,\u00a0"}},
{"phone": null, "name": "Sugar Sweet Bakery", "address": {"region": "AZ", "zipcode": "85716", "street_address": "18 S Eastbourne Ave", "locality": "Tucson,\u00a0"}},
{"phone": null, "name": "Tayna Restaurant and Bakery", "address": {"region": "AZ", "zipcode": "85716", "street_address": "2526 E 6th St", "locality": "Tucson,\u00a0"}},
{"phone": null, "name": "Professional Bartenders Unlimited", "address": {"region": "AZ", "zipcode": "85716", "street_address": "3619 E Speedway Blvd", "locality": "Tucson,\u00a0"}},
{"phone": null, "name": "Beyond Bread, Inc.", "address": {"region": "AZ", "zipcode": "85712", "street_address": "3957 E Speedway Blvd Ste 209", "locality": "Tucson,\u00a0"}},
{"phone": null, "name": "Alvernon Donut Shop", "address": {"region": "AZ", "zipcode": "85711", "street_address": "1450 S Alvernon Way", "locality": "Tucson,\u00a0"}},
{"phone": null, "name": "Mercad Y Carniceria El", "address": {"region": "AZ", "zipcode": "85711", "street_address": "4211 E 22nd St", "locality": "Tucson,\u00a0"}},
{"phone": null, "name": "Meziab International", "address": {"region": "AZ", "zipcode": "85712", "street_address": "4500 E Speedway Blvd", "locality": "Tucson,\u00a0"}},
{"phone": null, "name": "CakeLab", "address": {"region": "AZ", "zipcode": "85705", "street_address": "402 E 4th St Unit 3", "locality": "Tucson,\u00a0"}},
{"phone": null, "name": "Village Bakehouse", "address_text": "7882 N Oracle Rd, Tucson, AZ 85704"},
{"phone": null, "name": "Cup Quequitos", "address": {"region": "AZ", "zipcode": "85701", "street_address": "110 E Pennington St", "locality": "Tucson,\u00a0"}},
{"phone": null, "name": "Prep & Pastry", "address": {"region": "AZ", "zipcode": "85719", "street_address": "3073 N Campbell Ave", "locality": "Tucson,\u00a0"}},
{"phone": null, "name": "Donut King", "address": {"region": "AZ", "zipcode": "85705", "street_address": "150 W Grant Rd", "locality": "Tucson,\u00a0"}},
{"phone": null, "name": "La Estrella Bakery Inc", "address": {"region": "AZ", "zipcode": "85745", "street_address": "100 S Avenida Del Convento", "locality": "Tucson,\u00a0"}},
{"phone": null, "name": "Indian Frye Bread Manna From Heaven", "address": {"region": "AZ", "zipcode": "85745", "street_address": "1118 W Saint Marys Rd", "locality": "Tucson,\u00a0"}},
{"phone": null, "name": "Cakes By Clara", "address": {"region": "AZ", "zipcode": "85719", "street_address": "3419 N 1st Ave", "locality": "Tucson,\u00a0"}},
{"phone": null, "name": "Kneaders Bakery & Cafe", "address": {"region": "AZ", "zipcode": "85711", "street_address": "135 S Wilmot Rd, Tucson, AZ 85711", "locality": "Tucson,\u00a0"}},
{"phone": null, "name": "Donut Wheel", "address": {"region": "AZ", "zipcode": "85714", "street_address": "4801 S Campbell Ave", "locality": "Tucson,\u00a0"}},
{"phone": null, "name": "Prep & Pastry", "address": {"region": "AZ", "zipcode": "85715", "street_address": "6450 E Grant Rd", "locality": "Tucson,\u00a0"}},
{"phone": null, "name": "Bakehouse Bread Company", "address": {"region": "AZ", "zipcode": "85745", "street_address": "2520 N Jackrabbit Ave", "locality": "Tucson,\u00a0"}},
{"phone": null, "name": "Donut Wheel", "address": {"region": "AZ", "zipcode": "85730", "street_address": "2630 S Kolb Rd", "locality": "Tucson,\u00a0"}},
{"phone": null, "name": "Market Basket", "address": {"region": "AZ", "zipcode": "85706", "street_address": "5242 S 12th Ave", "locality": "Tucson,\u00a0"}},
{"phone": null, "name": "Alejandro's Tortilla Factory", "address": {"region": "AZ", "zipcode": "85706", "street_address": "5330 S 12th Ave", "locality": "Tucson,\u00a0"}},
{"phone": null, "name": "Pie Bird Bakery & Cafe", "address": {"region": "AZ", "zipcode": "85710", "street_address": "7679 E Chase Park Loop", "locality": "Tucson,\u00a0"}},
{"phone": null, "name": "Nut'n Honey Bakery", "address": {"region": "AZ", "zipcode": "85730", "street_address": "7441 E Desert Aire Dr", "locality": "Tucson,\u00a0"}},
{"phone": null, "name": "Ambrosia Cakes", "address": {"region": "AZ", "zipcode": "85704", "street_address": "6100 N Oracle Rd Ste 22", "locality": "Tucson,\u00a0"}},
{"phone": null, "name": "Cayley Cakes", "address": {"region": "AZ", "zipcode": "85749", "street_address": "8963 E Tanque Verde Rd", "locality": "Tucson,\u00a0"}},
{"phone": null, "name": "Ambrosia of Tucson", "address": {"region": "AZ", "zipcode": "85704", "street_address": "7051 N Oracle Rd", "locality": "Tucson,\u00a0"}},
{"phone": null, "name": "Bb Sweets Inc", "address": {"region": "AZ", "zipcode": "85704", "street_address": "421 W Ina Rd", "locality": "Tucson,\u00a0"}},
{"phone": null, "name": "Cactus Cakes Corp", "address": {"region": "AZ", "zipcode": "85704", "street_address": "7278 N Oracle Rd", "locality": "Tucson,\u00a0"}},
{"phone": null, "name": "Nothing Bundt Cakes", "address": {"region": "AZ", "zipcode": "85704", "street_address": "7278 N Oracle Rd", "locality": "Tucson,\u00a0"}},
{"phone": null, "name": "Queen Donuts", "address": {"region": "AZ", "zipcode": "85713", "street_address": "5975 W Western Way Cir # 110", "locality": "Tucson,\u00a0"}},
{"phone": null, "name": "Sonya's Brown Sugar Bakery", "address": {"region": "AZ", "zipcode": "85741", "street_address": "3821 West Costco Dr, Suite 119", "locality": "Tucson,\u00a0"}},
{"phone": null, "name": "Busy B's Bakery", "address": {"region": "AZ", "zipcode": "85741", "street_address": "6781 N Thornydale Rd Ste 229", "locality": "Tucson,\u00a0"}},
{"phone": null, "name": "Cookie Wagon", "address": {"region": "AZ", "zipcode": "85741", "street_address": "6910 N Camino Martin Ste 130", "locality": "Tucson,\u00a0"}},
{"phone": null, "name": "Perkins Restaurant & Bakery", "address": {"region": "AZ", "zipcode": "85741", "street_address": "4650 W Ina Rd", "locality": "Tucson,\u00a0"}},
{"phone": null, "name": "Traditions Bakery", "address": {"region": "AZ", "zipcode": "85737", "street_address": "10604 N Oracle Rd", "locality": "Tucson,\u00a0"}},
{"phone": null, "name": "Breadsmith", "address": {"region": "AZ", "zipcode": "85737", "street_address": "10355 N La Canada Dr", "locality": "Tucson,\u00a0"}},
{"phone": null, "name": "Couture Cake Jewelry", "address": {"region": "AZ", "zipcode": "85742", "street_address": "2681 W Camino Llano", "locality": "Tucson,\u00a0"}},
{"phone": null, "name": "Walmart - Bakery", "address": {"region": "AZ", "zipcode": "85743", "street_address": "8280 N Cortaro Rd", "locality": "Tucson,\u00a0"}},
{"phone": null, "name": "Cookie Wagon", "address": {"region": "AZ", "zipcode": "85741", "street_address": "6910 N Camino Martin Ste 130", "locality": "Tucson,\u00a0"}},
{"phone": null, "name": "Perkins Restaurant & Bakery", "address": {"region": "AZ", "zipcode": "85741", "street_address": "4650 W Ina Rd", "locality": "Tucson,\u00a0"}},
{"phone": null, "name": "Traditions Bakery", "address": {"region": "AZ", "zipcode": "85737", "street_address": "10604 N Oracle Rd", "locality": "Tucson,\u00a0"}},
{"phone": null, "name": "Breadsmith", "address": {"region": "AZ", "zipcode": "85737", "street_address": "10355 N La Canada Dr", "locality": "Tucson,\u00a0"}},
{"phone": null, "name": "Couture Cake Jewelry", "address": {"region": "AZ", "zipcode": "85742", "street_address": "2681 W Camino Llano", "locality": "Tucson,\u00a0"}},
{"phone": null, "name": "Walmart - Bakery", "address": {"region": "AZ", "zipcode": "85743", "street_address": "8280 N Cortaro Rd", "locality": "Tucson,\u00a0"}},
{"phone": null, "name": "Cinnabon", "address": {"region": "AZ", "zipcode": "85756", "street_address": "5570 E Travel Plaza Way", "locality": "Tucson,\u00a0"}},
{"phone": null, "name": "La Estrella Bakery Inc", "address": {"region": "AZ", "zipcode": "85706", "street_address": "5266 S 12th Ave,", "locality": "Tucson,\u00a0"}},
{"phone": null, "name": "Viro's Real Italian Bakery", "address": {"region": "AZ", "zipcode": "85710", "street_address": "8301 E 22nd St", "locality": "Tucson,\u00a0"}},
{"phone": null, "name": "Gourmet Girls Gluten Free Bakery/Bistro", "address": {"region": "AZ", "zipcode": "85704", "street_address": "5845 N Oracle Rd", "locality": "Tucson,\u00a0"}},
{"phone": null, "name": "Le Cave's Bakery Inc", "address": {"region": "AZ", "zipcode": "85713", "street_address": "1219 S 6th Ave", "locality": "Tucson,\u00a0"}},
{"phone": null, "name": "Marco's Patisserie Bakery", "address": {"region": "AZ", "zipcode": "85716", "street_address": "3308 E Grant Rd", "locality": "Tucson,\u00a0"}},
{"phone": null, "name": "Holsum Bakery Outlet", "address": {"region": "AZ", "zipcode": "85713", "street_address": "2801 S 4th Ave", "locality": "Tucson,\u00a0"}},
{"phone": null, "name": "Albertsons", "address": {"region": "AZ", "zipcode": "85748", "street_address": "9595 E Broadway Blvd", "locality": "Tucson,\u00a0"}},
{"phone": null, "name": "Small Planet Bakery", "address": {"region": "AZ", "zipcode": "85705", "street_address": "411 N 7th Ave Ste 101", "locality": "Tucson,\u00a0"}},
{"phone": null, "name": "Dunkin' Donuts", "address": {"region": "AZ", "zipcode": "85719", "street_address": "904 E University Blvd", "locality": "Tucson,\u00a0"}},
{"phone": null, "name": "Bruegger's", "address": {"region": "AZ", "zipcode": "85718", "street_address": "5665 N Swan Rd", "locality": "Tucson,\u00a0"}},
{"phone": null, "name": "Mimi's Fine Bakery & Cafe", "address": {"region": "AZ", "zipcode": "85747", "street_address": "8517 E Ramona Madera Ln", "locality": "Tucson,\u00a0"}},
{"phone": null, "name": "Bruegger's", "address": {"region": "AZ", "zipcode": "85719", "street_address": "1064 N Campbell Ave", "locality": "Tucson,\u00a0"}},
{"phone": null, "name": "Bruegger's", "address": {"region": "AZ", "zipcode": "85701", "street_address": "1 W Congress St", "locality": "Tucson,\u00a0"}},
{"phone": null, "name": "Bruegger's", "address": {"region": "AZ", "zipcode": "85711", "street_address": "6165 E Broadway Blvd", "locality": "Tucson,\u00a0"}},
{"phone": null, "name": "Bruegger's", "address": {"region": "AZ", "zipcode": "85715", "street_address": "7127 E Tanque Verde Rd", "locality": "Tucson,\u00a0"}},
{"phone": null, "name": "Bruegger's", "address": {"region": "AZ", "zipcode": "85704", "street_address": "88 W River Rd", "locality": "Tucson,\u00a0"}},
{"phone": null, "name": "Albertsons", "address": {"region": "AZ", "zipcode": "85704", "street_address": "5085 N La Canada Dr", "locality": "Tucson,\u00a0"}},
{"phone": null, "name": "Bruegger's", "address": {"region": "AZ", "zipcode": "85741", "street_address": "7320 N La Cholla Blvd", "locality": "Tucson,\u00a0"}},
{"phone": null, "name": "Bruegger's", "address": {"region": "AZ", "zipcode": "85716", "street_address": "3843 E Broadway Blvd", "locality": "Tucson,\u00a0"}},
{"phone": null, "name": "Albertsons", "address": {"region": "AZ", "zipcode": "85715", "street_address": "6600 E Grant Rd", "locality": "Tucson,\u00a0"}},
{"phone": null, "name": "Coyote Pause Cafe", "address": {"region": "AZ", "zipcode": "85735", "street_address": "2740 S Kinney Rd Ste B", "locality": "Tucson,\u00a0"}},
{"phone": null, "name": "Albertsons", "address": {"region": "AZ", "zipcode": "85719", "street_address": "2854 N Campbell Ave", "locality": "Tucson,\u00a0"}},
{"phone": null, "name": "Albertsons", "address": {"region": "AZ", "zipcode": "85710", "street_address": "6363 E 22nd St", "locality": "Tucson,\u00a0"}},
{"phone": null, "name": "Oroweat Baking Co", "address": {"region": "AZ", "zipcode": "85713", "street_address": "3770 S Park Ave Ste C", "locality": "Tucson,\u00a0"}},
{"phone": null, "name": "Dunkin' Donuts", "address": {"region": "AZ", "zipcode": "85711", "street_address": "5346 E 22nd St", "locality": "Tucson,\u00a0"}},
{"phone": null, "name": "Queen Donuts", "address": {"region": "AZ", "zipcode": "85745", "street_address": "1108 W Saint Marys Rd", "locality": "Tucson,\u00a0"}},
{"phone": null, "name": "Sun-Rise Baking Co.", "address": {"region": "AZ", "zipcode": "85719", "street_address": "3650 N 1st Ave Ste 160", "locality": "Tucson,\u00a0"}},
{"phone": null, "name": "Albertsons", "address": {"region": "AZ", "zipcode": "85745", "street_address": "1350 N Silverbell Rd", "locality": "Tucson,\u00a0"}},
{"phone": null, "name": "Cinnabon", "address": {"region": "AZ", "zipcode": "85705", "street_address": "4500 N Oracle Rd Ste 126", "locality": "Tucson,\u00a0"}},
{"phone": null, "name": "Dunkin' Donuts", "address": {"region": "AZ", "zipcode": "85746", "street_address": "1655 W Valencia Rd", "locality": "Tucson,\u00a0"}},
{"phone": null, "name": "Bruegger's", "address": {"region": "AZ", "zipcode": "85747", "street_address": "8140 S Houghton Rd Ste 150", "locality": "Tucson,\u00a0"}},
{"phone": null, "name": "B B Sweets", "address": {"region": "AZ", "zipcode": "85719", "street_address": "3026 N Campbell Ave", "locality": "Tucson,\u00a0"}},
{"phone": null, "name": "Lena's Custom Desserts", "address": {"region": "AZ", "zipcode": "85712", "street_address": "1517 N Wilmot Rd", "locality": "Tucson,\u00a0"}},
{"phone": null, "name": "Oroweat Baking Co", "address": {"region": "AZ", "zipcode": "85710", "street_address": "7535 E Broadway Blvd", "locality": "Tucson,\u00a0"}},
{"phone": null, "name": "From The Heart Corp", "address": {"region": "AZ", "zipcode": "85710", "street_address": "150 S Camino Seco # 114", "locality": "Tucson,\u00a0"}},
{"phone": null, "name": "Orowheat Baking Co", "address": {"region": "AZ", "zipcode": "85741", "street_address": "3840 W Ina Rd", "locality": "Tucson,\u00a0"}},
{"phone": null, "name": "Cinnabon", "address": {"region": "AZ", "zipcode": "85711", "street_address": "5870 E Broadway Blvd # 360", "locality": "Tucson,\u00a0"}},
{"phone": null, "name": "Bruegger's", "address": {"region": "AZ", "zipcode": "85737", "street_address": "11165 N La Canada Dr Ste 161", "locality": "Tucson,\u00a0"}},
{"phone": null, "name": "Tortilleria Dona Esperanza", "address": {"region": "AZ", "zipcode": "85713", "street_address": "2432 S 4th Ave", "locality": "Tucson,\u00a0"}},
{"phone": null, "name": "Sons Bakery Cafe", "address": {"region": "AZ", "zipcode": "85712", "street_address": "5683 E Speedway Blvd", "locality": "Tucson,\u00a0"}},
{"phone": null, "name": "Baker & Baker", "address": {"region": "AZ", "zipcode": "85715", "street_address": "9041 E Seneca St", "locality": "Tucson,\u00a0"}},
{"phone": null, "name": "Beyond Bread", "address": {"region": "AZ", "zipcode": "85704", "street_address": "421 W Ina Rd", "locality": "Tucson,\u00a0"}},
{"phone": null, "name": "Liza's Cutie Cupcakes", "address": {"region": "AZ", "zipcode": "85745", "street_address": "2112 W Grant Rd", "locality": "Tucson,\u00a0"}},
{"phone": null, "name": "La Estrella Bakery INC", "address": {"region": "AZ", "zipcode": "85710", "street_address": "100 S Avenida De La Vis", "locality": "Tucson,\u00a0"}},
{"phone": null, "name": "Cinnabon", "address": {"region": "AZ", "zipcode": "85706", "street_address": "3270 E Valencia Rd", "locality": "Tucson,\u00a0"}},
{"phone": null, "name": "El Triunfo Bakery", "address": {"region": "AZ", "zipcode": "85706", "street_address": "6348 S Nogales Hwy", "locality": "Tucson,\u00a0"}},
{"phone": null, "name": "Walmart - Bakery", "address": {"region": "AZ", "zipcode": "85741", "street_address": "7635 N La Cholla Blvd", "locality": "Tucson,\u00a0"}},
{"phone": null, "name": "Mona's Danish Bakery", "address": {"region": "AZ", "zipcode": "85718", "street_address": "4777 E Sunrise Dr Ste 113", "locality": "Tucson,\u00a0"}},
{"phone": null, "name": "Knead Dough", "address": {"region": "AZ", "zipcode": "85712", "street_address": "3957 E Speedway Blvd Ste 209", "locality": "Tucson,\u00a0"}},
{"phone": null, "name": "Conchita's Cakes", "address": {"region": "AZ", "zipcode": "85705", "street_address": "819 W Jacinto St", "locality": "Tucson,\u00a0"}},
{"phone": null, "name": "Baker Center", "address": {"region": "AZ", "zipcode": "85715", "street_address": "2251 N Indian Ruins Rd Ste E", "locality": "Tucson,\u00a0"}},
{"phone": null, "name": "Beyond Bread", "address": {"region": "AZ", "zipcode": "85719", "street_address": "3026 N Campbell Ave", "locality": "Tucson,\u00a0"}},
{"phone": null, "name": "Selah's Baked Blessings", "address": {"region": "AZ", "zipcode": "85713", "street_address": "3622 E 32nd St", "locality": "Tucson,\u00a0"}},
{"phone": null, "name": "Bread & Butter Cafe", "address": {"region": "AZ", "zipcode": "85711", "street_address": "4231 E 22nd St Ste 101", "locality": "Tucson,\u00a0"}},
{"phone": null, "name": "Bimbo Bakeries USA", "address": {"region": "AZ", "zipcode": "85713", "street_address": "3770 S Park Ave", "locality": "Tucson,\u00a0"}},
{"phone": null, "name": "Lena's Custom Dessert", "address": {"region": "AZ", "zipcode": "85712", "street_address": "2418 N Craycroft Rd", "locality": "Tucson,\u00a0"}},
{"phone": null, "name": "Blissful Sweet Cakes", "address": {"region": "AZ", "zipcode": "85713", "street_address": "2110 E Hancock Vis", "locality": "Tucson,\u00a0"}},
{"phone": null, "name": "Nancy's Nook Bakery & Veteran's Retreat", "address": {"region": "NE", "zipcode": "68932", "street_address": "PO Box 127", "locality": "Campbell,\u00a0"}},
{"phone": null, "name": "Tucson Cakes", "address_text": null},
{"phone": null, "name": "Shari's Berries", "address_text": null}
][
{"phone": null, "name": "Shari's Berries", "address_text": "Serving the Tucson area."},
{"phone": null, "name": "Village Bakehouse", "address": {"region": "AZ", "zipcode": "85704", "street_address": "7882 N Oracle Rd", "locality": "Tucson,\u00a0"}},
{"phone": null, "name": "Beyond Bread", "address": {"region": "AZ", "zipcode": "85712", "street_address": "6260 E Speedway Blvd", "locality": "Tucson,\u00a0"}},
{"phone": null, "name": "Sonya's Brown Sugar Bakery", "address": {"region": "AZ", "zipcode": "85741", "street_address": "3821 West Costco Dr #119", "locality": "Tucson,\u00a0"}},
{"phone": null, "name": "Nadine's Pastry Shoppe", "address": {"region": "AZ", "zipcode": "85711", "street_address": "4553 E Broadway Blvd", "locality": "Tucson,\u00a0"}},
{"phone": null, "name": "La Baguette Bakery", "address": {"region": "AZ", "zipcode": "85719", "street_address": "1797 E Prince Rd", "locality": "Tucson,\u00a0"}},
{"phone": null, "name": "La Baguette Parisienne", "address": {"region": "AZ", "zipcode": "85710", "street_address": "7851 E Broadway Blvd", "locality": "Tucson,\u00a0"}},
{"phone": null, "name": "Norma's Cakery", "address": {"region": "AZ", "zipcode": "85713", "street_address": "2500 S 6th Ave", "locality": "Tucson,\u00a0"}},
{"phone": null, "name": "Le Bon Gateau", "address": {"region": "AZ", "zipcode": "85705", "street_address": "4695 N Oracle Rd Ste 105", "locality": "Tucson,\u00a0"}},
{"phone": null, "name": "Sweet Tooshies Bakery", "address": {"region": "AZ", "zipcode": "85749", "street_address": "8963 E Tanque Verde Rd", "locality": "Tucson,\u00a0"}},
{"phone": null, "name": "Enchanted Cakes & Cupcakes", "address": {"region": "AZ", "zipcode": "85743", "street_address": "10810 W Anthony Dr", "locality": "Tucson,\u00a0"}},
{"phone": null, "name": "Ghini's French Caffe", "address": {"region": "AZ", "zipcode": "85719", "street_address": "1803 E Prince Rd", "locality": "Tucson,\u00a0"}},
{"phone": null, "name": "Donut Wheel", "address": {"region": "AZ", "zipcode": "85741", "street_address": "4524 W Ina Rd", "locality": "Tucson,\u00a0"}},
{"phone": null, "name": "Donut Wheel", "address": {"region": "AZ", "zipcode": "85706", "street_address": "675 W Valencia Rd", "locality": "Tucson,\u00a0"}},
{"phone": null, "name": "Dunkin' Donuts", "address": {"region": "AZ", "zipcode": "85710", "street_address": "9485 E Broadway Blvd", "locality": "Tucson,\u00a0"}},
{"phone": null, "name": "La Palma Tortilla Factory & Bakery", "address": {"region": "AZ", "zipcode": "85705", "street_address": "3624 N Oracle Rd", "locality": "Tucson,\u00a0"}},
{"phone": null, "name": "Woops! BakeShop", "address": {"region": "AZ", "zipcode": "85719", "street_address": "845 E University Boulevard, Main Gate Square", "locality": "Tucson,\u00a0"}},
{"phone": null, "name": "The Coronet", "address": {"region": "AZ", "zipcode": "85705", "street_address": "402 E 9th St", "locality": "Tucson,\u00a0"}},
{"phone": null, "name": "Cafe 54", "address": {"region": "AZ", "zipcode": "85701", "street_address": "54 E Pennington St", "locality": "Tucson,\u00a0"}},
{"phone": null, "name": "GRINGO grill + cantina", "address": {"region": "AZ", "zipcode": "85704", "street_address": "5900 N Oracle Rd", "locality": "Tucson,\u00a0"}},
{"phone": null, "name": "Aj's", "address": {"region": "AZ", "zipcode": "85718", "street_address": "2805 E Skyline Dr", "locality": "Tucson,\u00a0"}},
{"phone": null, "name": "Albertsons", "address": {"region": "AZ", "zipcode": "85741", "street_address": "7300 N La Cholla Blvd", "locality": "Tucson,\u00a0"}},
{"phone": null, "name": "Mini's Cupcakes", "address": {"region": "AZ", "zipcode": "85704", "street_address": "7051 N Oracle Rd", "locality": "Tucson,\u00a0"}},
{"phone": null, "name": "Sugar Sweet Bakery", "address": {"region": "AZ", "zipcode": "85716", "street_address": "18 S Eastbourne Ave", "locality": "Tucson,\u00a0"}},
{"phone": null, "name": "Tayna Restaurant and Bakery", "address": {"region": "AZ", "zipcode": "85716", "street_address": "2526 E 6th St", "locality": "Tucson,\u00a0"}},
{"phone": null, "name": "Professional Bartenders Unlimited", "address": {"region": "AZ", "zipcode": "85716", "street_address": "3619 E Speedway Blvd", "locality": "Tucson,\u00a0"}},
{"phone": null, "name": "Beyond Bread, Inc.", "address": {"region": "AZ", "zipcode": "85712", "street_address": "3957 E Speedway Blvd Ste 209", "locality": "Tucson,\u00a0"}},
{"phone": null, "name": "Alvernon Donut Shop", "address": {"region": "AZ", "zipcode": "85711", "street_address": "1450 S Alvernon Way", "locality": "Tucson,\u00a0"}},
{"phone": null, "name": "Mercad Y Carniceria El", "address": {"region": "AZ", "zipcode": "85711", "street_address": "4211 E 22nd St", "locality": "Tucson,\u00a0"}},
{"phone": null, "name": "Meziab International", "address": {"region": "AZ", "zipcode": "85712", "street_address": "4500 E Speedway Blvd", "locality": "Tucson,\u00a0"}},
{"phone": null, "name": "CakeLab", "address": {"region": "AZ", "zipcode": "85705", "street_address": "402 E 4th St Unit 3", "locality": "Tucson,\u00a0"}},
{"phone": null, "name": "Village Bakehouse", "address_text": "7882 N Oracle Rd, Tucson, AZ 85704"},
{"phone": null, "name": "Cup Quequitos", "address": {"region": "AZ", "zipcode": "85701", "street_address": "110 E Pennington St", "locality": "Tucson,\u00a0"}},
{"phone": null, "name": "Prep & Pastry", "address": {"region": "AZ", "zipcode": "85719", "street_address": "3073 N Campbell Ave", "locality": "Tucson,\u00a0"}},
{"phone": null, "name": "Donut King", "address": {"region": "AZ", "zipcode": "85705", "street_address": "150 W Grant Rd", "locality": "Tucson,\u00a0"}},
{"phone": null, "name": "La Estrella Bakery Inc", "address": {"region": "AZ", "zipcode": "85745", "street_address": "100 S Avenida Del Convento", "locality": "Tucson,\u00a0"}},
{"phone": null, "name": "Indian Frye Bread Manna From Heaven", "address": {"region": "AZ", "zipcode": "85745", "street_address": "1118 W Saint Marys Rd", "locality": "Tucson,\u00a0"}},
{"phone": null, "name": "Cakes By Clara", "address": {"region": "AZ", "zipcode": "85719", "street_address": "3419 N 1st Ave", "locality": "Tucson,\u00a0"}},
{"phone": null, "name": "Kneaders Bakery & Cafe", "address": {"region": "AZ", "zipcode": "85711", "street_address": "135 S Wilmot Rd, Tucson, AZ 85711", "locality": "Tucson,\u00a0"}},
{"phone": null, "name": "Donut Wheel", "address": {"region": "AZ", "zipcode": "85714", "street_address": "4801 S Campbell Ave", "locality": "Tucson,\u00a0"}},
{"phone": null, "name": "Prep & Pastry", "address": {"region": "AZ", "zipcode": "85715", "street_address": "6450 E Grant Rd", "locality": "Tucson,\u00a0"}},
{"phone": null, "name": "Bakehouse Bread Company", "address": {"region": "AZ", "zipcode": "85745", "street_address": "2520 N Jackrabbit Ave", "locality": "Tucson,\u00a0"}},
{"phone": null, "name": "Donut Wheel", "address": {"region": "AZ", "zipcode": "85730", "street_address": "2630 S Kolb Rd", "locality": "Tucson,\u00a0"}},
{"phone": null, "name": "Market Basket", "address": {"region": "AZ", "zipcode": "85706", "street_address": "5242 S 12th Ave", "locality": "Tucson,\u00a0"}},
{"phone": null, "name": "Alejandro's Tortilla Factory", "address": {"region": "AZ", "zipcode": "85706", "street_address": "5330 S 12th Ave", "locality": "Tucson,\u00a0"}},
{"phone": null, "name": "Pie Bird Bakery & Cafe", "address": {"region": "AZ", "zipcode": "85710", "street_address": "7679 E Chase Park Loop", "locality": "Tucson,\u00a0"}},
{"phone": null, "name": "Nut'n Honey Bakery", "address": {"region": "AZ", "zipcode": "85730", "street_address": "7441 E Desert Aire Dr", "locality": "Tucson,\u00a0"}},
{"phone": null, "name": "Ambrosia Cakes", "address": {"region": "AZ", "zipcode": "85704", "street_address": "6100 N Oracle Rd Ste 22", "locality": "Tucson,\u00a0"}},
{"phone": null, "name": "Cayley Cakes", "address": {"region": "AZ", "zipcode": "85749", "street_address": "8963 E Tanque Verde Rd", "locality": "Tucson,\u00a0"}},
{"phone": null, "name": "Ambrosia of Tucson", "address": {"region": "AZ", "zipcode": "85704", "street_address": "7051 N Oracle Rd", "locality": "Tucson,\u00a0"}},
{"phone": null, "name": "Bb Sweets Inc", "address": {"region": "AZ", "zipcode": "85704", "street_address": "421 W Ina Rd", "locality": "Tucson,\u00a0"}},
{"phone": null, "name": "Cactus Cakes Corp", "address": {"region": "AZ", "zipcode": "85704", "street_address": "7278 N Oracle Rd", "locality": "Tucson,\u00a0"}},
{"phone": null, "name": "Nothing Bundt Cakes", "address": {"region": "AZ", "zipcode": "85704", "street_address": "7278 N Oracle Rd", "locality": "Tucson,\u00a0"}},
{"phone": null, "name": "Queen Donuts", "address": {"region": "AZ", "zipcode": "85713", "street_address": "5975 W Western Way Cir # 110", "locality": "Tucson,\u00a0"}},
{"phone": null, "name": "Sonya's Brown Sugar Bakery", "address": {"region": "AZ", "zipcode": "85741", "street_address": "3821 West Costco Dr, Suite 119", "locality": "Tucson,\u00a0"}},
{"phone": null, "name": "Busy B's Bakery", "address": {"region": "AZ", "zipcode": "85741", "street_address": "6781 N Thornydale Rd Ste 229", "locality": "Tucson,\u00a0"}},
{"phone": null, "name": "Cookie Wagon", "address": {"region": "AZ", "zipcode": "85741", "street_address": "6910 N Camino Martin Ste 130", "locality": "Tucson,\u00a0"}},
{"phone": null, "name": "Perkins Restaurant & Bakery", "address": {"region": "AZ", "zipcode": "85741", "street_address": "4650 W Ina Rd", "locality": "Tucson,\u00a0"}},
{"phone": null, "name": "Traditions Bakery", "address": {"region": "AZ", "zipcode": "85737", "street_address": "10604 N Oracle Rd", "locality": "Tucson,\u00a0"}},
{"phone": null, "name": "Breadsmith", "address": {"region": "AZ", "zipcode": "85737", "street_address": "10355 N La Canada Dr", "locality": "Tucson,\u00a0"}},
{"phone": null, "name": "Couture Cake Jewelry", "address": {"region": "AZ", "zipcode": "85742", "street_address": "2681 W Camino Llano", "locality": "Tucson,\u00a0"}},
{"phone": null, "name": "Walmart - Bakery", "address": {"region": "AZ", "zipcode": "85743", "street_address": "8280 N Cortaro Rd", "locality": "Tucson,\u00a0"}},
{"phone": null, "name": "Cookie Wagon", "address": {"region": "AZ", "zipcode": "85741", "street_address": "6910 N Camino Martin Ste 130", "locality": "Tucson,\u00a0"}},
{"phone": null, "name": "Perkins Restaurant & Bakery", "address": {"region": "AZ", "zipcode": "85741", "street_address": "4650 W Ina Rd", "locality": "Tucson,\u00a0"}},
{"phone": null, "name": "Traditions Bakery", "address": {"region": "AZ", "zipcode": "85737", "street_address": "10604 N Oracle Rd", "locality": "Tucson,\u00a0"}},
{"phone": null, "name": "Breadsmith", "address": {"region": "AZ", "zipcode": "85737", "street_address": "10355 N La Canada Dr", "locality": "Tucson,\u00a0"}},
{"phone": null, "name": "Couture Cake Jewelry", "address": {"region": "AZ", "zipcode": "85742", "street_address": "2681 W Camino Llano", "locality": "Tucson,\u00a0"}},
{"phone": null, "name": "Walmart - Bakery", "address": {"region": "AZ", "zipcode": "85743", "street_address": "8280 N Cortaro Rd", "locality": "Tucson,\u00a0"}},
{"phone": null, "name": "Cinnabon", "address": {"region": "AZ", "zipcode": "85756", "street_address": "5570 E Travel Plaza Way", "locality": "Tucson,\u00a0"}},
{"phone": null, "name": "La Estrella Bakery Inc", "address": {"region": "AZ", "zipcode": "85706", "street_address": "5266 S 12th Ave,", "locality": "Tucson,\u00a0"}},
{"phone": null, "name": "Viro's Real Italian Bakery", "address": {"region": "AZ", "zipcode": "85710", "street_address": "8301 E 22nd St", "locality": "Tucson,\u00a0"}},
{"phone": null, "name": "Gourmet Girls Gluten Free Bakery/Bistro", "address": {"region": "AZ", "zipcode": "85704", "street_address": "5845 N Oracle Rd", "locality": "Tucson,\u00a0"}},
{"phone": null, "name": "Le Cave's Bakery Inc", "address": {"region": "AZ", "zipcode": "85713", "street_address": "1219 S 6th Ave", "locality": "Tucson,\u00a0"}},
{"phone": null, "name": "Marco's Patisserie Bakery", "address": {"region": "AZ", "zipcode": "85716", "street_address": "3308 E Grant Rd", "locality": "Tucson,\u00a0"}},
{"phone": null, "name": "Holsum Bakery Outlet", "address": {"region": "AZ", "zipcode": "85713", "street_address": "2801 S 4th Ave", "locality": "Tucson,\u00a0"}},
{"phone": null, "name": "Albertsons", "address": {"region": "AZ", "zipcode": "85748", "street_address": "9595 E Broadway Blvd", "locality": "Tucson,\u00a0"}},
{"phone": null, "name": "Small Planet Bakery", "address": {"region": "AZ", "zipcode": "85705", "street_address": "411 N 7th Ave Ste 101", "locality": "Tucson,\u00a0"}},
{"phone": null, "name": "Dunkin' Donuts", "address": {"region": "AZ", "zipcode": "85719", "street_address": "904 E University Blvd", "locality": "Tucson,\u00a0"}},
{"phone": null, "name": "Bruegger's", "address": {"region": "AZ", "zipcode": "85718", "street_address": "5665 N Swan Rd", "locality": "Tucson,\u00a0"}},
{"phone": null, "name": "Mimi's Fine Bakery & Cafe", "address": {"region": "AZ", "zipcode": "85747", "street_address": "8517 E Ramona Madera Ln", "locality": "Tucson,\u00a0"}},
{"phone": null, "name": "Bruegger's", "address": {"region": "AZ", "zipcode": "85719", "street_address": "1064 N Campbell Ave", "locality": "Tucson,\u00a0"}},
{"phone": null, "name": "Bruegger's", "address": {"region": "AZ", "zipcode": "85701", "street_address": "1 W Congress St", "locality": "Tucson,\u00a0"}},
{"phone": null, "name": "Bruegger's", "address": {"region": "AZ", "zipcode": "85711", "street_address": "6165 E Broadway Blvd", "locality": "Tucson,\u00a0"}},
{"phone": null, "name": "Bruegger's", "address": {"region": "AZ", "zipcode": "85715", "street_address": "7127 E Tanque Verde Rd", "locality": "Tucson,\u00a0"}},
{"phone": null, "name": "Bruegger's", "address": {"region": "AZ", "zipcode": "85704", "street_address": "88 W River Rd", "locality": "Tucson,\u00a0"}},
{"phone": null, "name": "Albertsons", "address": {"region": "AZ", "zipcode": "85704", "street_address": "5085 N La Canada Dr", "locality": "Tucson,\u00a0"}},
{"phone": null, "name": "Bruegger's", "address": {"region": "AZ", "zipcode": "85741", "street_address": "7320 N La Cholla Blvd", "locality": "Tucson,\u00a0"}},
{"phone": null, "name": "Bruegger's", "address": {"region": "AZ", "zipcode": "85716", "street_address": "3843 E Broadway Blvd", "locality": "Tucson,\u00a0"}},
{"phone": null, "name": "Albertsons", "address": {"region": "AZ", "zipcode": "85715", "street_address": "6600 E Grant Rd", "locality": "Tucson,\u00a0"}},
{"phone": null, "name": "Coyote Pause Cafe", "address": {"region": "AZ", "zipcode": "85735", "street_address": "2740 S Kinney Rd Ste B", "locality": "Tucson,\u00a0"}},
{"phone": null, "name": "Albertsons", "address": {"region": "AZ", "zipcode": "85719", "street_address": "2854 N Campbell Ave", "locality": "Tucson,\u00a0"}},
{"phone": null, "name": "Albertsons", "address": {"region": "AZ", "zipcode": "85710", "street_address": "6363 E 22nd St", "locality": "Tucson,\u00a0"}},
{"phone": null, "name": "Oroweat Baking Co", "address": {"region": "AZ", "zipcode": "85713", "street_address": "3770 S Park Ave Ste C", "locality": "Tucson,\u00a0"}},
{"phone": null, "name": "Dunkin' Donuts", "address": {"region": "AZ", "zipcode": "85711", "street_address": "5346 E 22nd St", "locality": "Tucson,\u00a0"}},
{"phone": null, "name": "Queen Donuts", "address": {"region": "AZ", "zipcode": "85745", "street_address": "1108 W Saint Marys Rd", "locality": "Tucson,\u00a0"}},
{"phone": null, "name": "Sun-Rise Baking Co.", "address": {"region": "AZ", "zipcode": "85719", "street_address": "3650 N 1st Ave Ste 160", "locality": "Tucson,\u00a0"}},
{"phone": null, "name": "Albertsons", "address": {"region": "AZ", "zipcode": "85745", "street_address": "1350 N Silverbell Rd", "locality": "Tucson,\u00a0"}},
{"phone": null, "name": "Cinnabon", "address": {"region": "AZ", "zipcode": "85705", "street_address": "4500 N Oracle Rd Ste 126", "locality": "Tucson,\u00a0"}},
{"phone": null, "name": "Dunkin' Donuts", "address": {"region": "AZ", "zipcode": "85746", "street_address": "1655 W Valencia Rd", "locality": "Tucson,\u00a0"}},
{"phone": null, "name": "Bruegger's", "address": {"region": "AZ", "zipcode": "85747", "street_address": "8140 S Houghton Rd Ste 150", "locality": "Tucson,\u00a0"}},
{"phone": null, "name": "B B Sweets", "address": {"region": "AZ", "zipcode": "85719", "street_address": "3026 N Campbell Ave", "locality": "Tucson,\u00a0"}},
{"phone": null, "name": "Lena's Custom Desserts", "address": {"region": "AZ", "zipcode": "85712", "street_address": "1517 N Wilmot Rd", "locality": "Tucson,\u00a0"}},
{"phone": null, "name": "Oroweat Baking Co", "address": {"region": "AZ", "zipcode": "85710", "street_address": "7535 E Broadway Blvd", "locality": "Tucson,\u00a0"}},
{"phone": null, "name": "From The Heart Corp", "address": {"region": "AZ", "zipcode": "85710", "street_address": "150 S Camino Seco # 114", "locality": "Tucson,\u00a0"}},
{"phone": null, "name": "Orowheat Baking Co", "address": {"region": "AZ", "zipcode": "85741", "street_address": "3840 W Ina Rd", "locality": "Tucson,\u00a0"}},
{"phone": null, "name": "Cinnabon", "address": {"region": "AZ", "zipcode": "85711", "street_address": "5870 E Broadway Blvd # 360", "locality": "Tucson,\u00a0"}},
{"phone": null, "name": "Bruegger's", "address": {"region": "AZ", "zipcode": "85737", "street_address": "11165 N La Canada Dr Ste 161", "locality": "Tucson,\u00a0"}},
{"phone": null, "name": "Tortilleria Dona Esperanza", "address": {"region": "AZ", "zipcode": "85713", "street_address": "2432 S 4th Ave", "locality": "Tucson,\u00a0"}},
{"phone": null, "name": "Sons Bakery Cafe", "address": {"region": "AZ", "zipcode": "85712", "street_address": "5683 E Speedway Blvd", "locality": "Tucson,\u00a0"}},
{"phone": null, "name": "Baker & Baker", "address": {"region": "AZ", "zipcode": "85715", "street_address": "9041 E Seneca St", "locality": "Tucson,\u00a0"}},
{"phone": null, "name": "Beyond Bread", "address": {"region": "AZ", "zipcode": "85704", "street_address": "421 W Ina Rd", "locality": "Tucson,\u00a0"}},
{"phone": null, "name": "Liza's Cutie Cupcakes", "address": {"region": "AZ", "zipcode": "85745", "street_address": "2112 W Grant Rd", "locality": "Tucson,\u00a0"}},
{"phone": null, "name": "La Estrella Bakery INC", "address": {"region": "AZ", "zipcode": "85710", "street_address": "100 S Avenida De La Vis", "locality": "Tucson,\u00a0"}},
{"phone": null, "name": "Cinnabon", "address": {"region": "AZ", "zipcode": "85706", "street_address": "3270 E Valencia Rd", "locality": "Tucson,\u00a0"}},
{"phone": null, "name": "El Triunfo Bakery", "address": {"region": "AZ", "zipcode": "85706", "street_address": "6348 S Nogales Hwy", "locality": "Tucson,\u00a0"}},
{"phone": null, "name": "Walmart - Bakery", "address": {"region": "AZ", "zipcode": "85741", "street_address": "7635 N La Cholla Blvd", "locality": "Tucson,\u00a0"}},
{"phone": null, "name": "Mona's Danish Bakery", "address": {"region": "AZ", "zipcode": "85718", "street_address": "4777 E Sunrise Dr Ste 113", "locality": "Tucson,\u00a0"}},
{"phone": null, "name": "Knead Dough", "address": {"region": "AZ", "zipcode": "85712", "street_address": "3957 E Speedway Blvd Ste 209", "locality": "Tucson,\u00a0"}},
{"phone": null, "name": "Conchita's Cakes", "address": {"region": "AZ", "zipcode": "85705", "street_address": "819 W Jacinto St", "locality": "Tucson,\u00a0"}},
{"phone": null, "name": "Baker Center", "address": {"region": "AZ", "zipcode": "85715", "street_address": "2251 N Indian Ruins Rd Ste E", "locality": "Tucson,\u00a0"}},
{"phone": null, "name": "Beyond Bread", "address": {"region": "AZ", "zipcode": "85719", "street_address": "3026 N Campbell Ave", "locality": "Tucson,\u00a0"}},
{"phone": null, "name": "Selah's Baked Blessings", "address": {"region": "AZ", "zipcode": "85713", "street_address": "3622 E 32nd St", "locality": "Tucson,\u00a0"}},
{"phone": null, "name": "Bread & Butter Cafe", "address": {"region": "AZ", "zipcode": "85711", "street_address": "4231 E 22nd St Ste 101", "locality": "Tucson,\u00a0"}},
{"phone": null, "name": "Bimbo Bakeries USA", "address": {"region": "AZ", "zipcode": "85713", "street_address": "3770 S Park Ave", "locality": "Tucson,\u00a0"}},
{"phone": null, "name": "Lena's Custom Dessert", "address": {"region": "AZ", "zipcode": "85712", "street_address": "2418 N Craycroft Rd", "locality": "Tucson,\u00a0"}},
{"phone": null, "name": "Blissful Sweet Cakes", "address": {"region": "AZ", "zipcode": "85713", "street_address": "2110 E Hancock Vis", "locality": "Tucson,\u00a0"}},
{"phone": null, "name": "Nancy's Nook Bakery & Veteran's Retreat", "address": {"region": "NE", "zipcode": "68932", "street_address": "PO Box 127", "locality": "Campbell,\u00a0"}},
{"phone": null, "name": "Tucson Cakes", "address_text": null},
{"phone": null, "name": "Shari's Berries", "address_text": null}
]